STARLINK-3285           
1 50181U 21125AB  26068.80306852  .00005873  00000+0  38691-3 0  9992
2 50181  53.2154 248.6220 0000990  96.1062 264.0043 15.08829905236628
LEMUR-2-AHMED-ASRAR     
1 60576U 24149DN  26068.73265438  .00013045  00000+0  79773-3 0  9992
2 60576  97.7021 152.9847 0001633  18.5035 341.6253 15.10376432 85541
